{"type": "FeatureCollection", "features": [ {"type": "Feature", "properties": {"norad_id": 35480, "name": "IRIDIUM 33 DEB", "group": "iridium-33-debris", "lat": -58.686891401450616, "lon": 21.483535639742115, "alt_km": 744.8481379677023, "timestamp": "2025-12-06T18:50:10.554671+00:00", "meta": {"OBJECT_NAME": "IRIDIUM 33 DEB", "OBJECT_ID": "1997-051QA", "EPOCH": "2025-12-01T21:29:27.496896", "MEAN_MOTION": 14.49686619, "ECCENTRICITY": 0.00155495, "INCLINATION": 86.3575, "RA_OF_ASC_NODE": 29.6125, "ARG_OF_PERICENTER": 136.7189, "MEAN_ANOMALY": 223.524, "EPHEMERIS_TYPE": 0, "CLASSIFICATION_TYPE": "U", "NORAD_CAT_ID": 35480, "ELEMENT_SET_NO": 999, "REV_AT_EPOCH": 86874, "BSTAR": 0.000651702, "MEAN_MOTION_DOT": 2.53e-05, "MEAN_MOTION_DDOT": 0}, "tle": {"line1": "1 35480U 97051QA  25335.89545714  .00002530  00000+0  65170-3 0  9994", "line2": "2 35480  86.3575  29.6125 0015549 136.7189 223.5240 14.49686619868745"}}, "geometry": {"type": "Point", "coordinates": [21.483535639742115, -58.686891401450616]}}, {"type": "Feature", "properties": {"norad_id": 35484, "name": "IRIDIUM 33 DEB", "group": "iridium-33-debris", "lat": 35.87282885344635, "lon": 172.8966900039984, "alt_km": 555.9657756880106, "timestamp": "2025-12-06T18:50:10.554681+00:00", "meta": {"OBJECT_NAME": "IRIDIUM 33 DEB", "OBJECT_ID": "1997-051QE", "EPOCH": "2025-12-01T19:32:14.692416", "MEAN_MOTION": 14.97587734, "ECCENTRICITY": 0.00218288, "INCLINATION": 86.3628, "RA_OF_ASC_NODE": 357.8533, "ARG_OF_PERICENTER": 162.6444, "MEAN_ANOMALY": 197.5538, "EPHEMERIS_TYPE": 0, "CLASSIFICATION_TYPE": "U", "NORAD_CAT_ID": 35484, "ELEMENT_SET_NO": 999, "REV_AT_EPOCH": 61852, "BSTAR": 0.0025030806, "MEAN_MOTION_DOT": 0.00029486, "MEAN_MOTION_DDOT": 0}, "tle": {"line1": "1 35484U 97051QE  25335.81405894  .00029486  00000+0  25031-2 0  9994", "line2": "2 35484  86.3628 357.8533 0021828 162.6444 197.5538 14.97587734618526"}}, "geometry": {"type": "Point", "coordinates": [172.8966900039984, 35.87282885344635]}}, {"type": "Feature", "properties": {"norad_id": 35488, "name": "IRIDIUM 33 DEB", "group": "iridium-33-debris", "lat": -45.13945335065009, "lon": 127.32481873934377, "alt_km": 647.822307514688, "timestamp": "2025-12-06T18:50:10.554691+00:00", "meta": {"OBJECT_NAME": "IRIDIUM 33 DEB", "OBJECT_ID": "1997-051QJ", "EPOCH": "2025-12-05T07:48:48.847104", "MEAN_MOTION": 14.8277176, "ECCENTRICITY": 0.00306154, "INCLINATION": 86.3258, "RA_OF_ASC_NODE": 304.2947, "ARG_OF_PERICENTER": 66.2574, "MEAN_ANOMALY": 294.1855, "EPHEMERIS_TYPE": 0, "CLASSIFICATION_TYPE": "U", "NORAD_CAT_ID": 35488, "ELEMENT_SET_NO": 999, "REV_AT_EPOCH": 88156, "BSTAR": 0.0027096313, "MEAN_MOTION_DOT": 0.00022144, "MEAN_MOTION_DDOT": 0}, "tle": {"line1": "1 35488U 97051QJ  25339.32556536  .00022144  00000+0  27096-2 0  9995", "line2": "2 35488  86.3258 304.2947 0030615  66.2574 294.1855 14.82771760881561"}}, "geometry": {"type": "Point", "coordinates": [127.32481873934377, -45.13945335065009]}}, {"type": "Feature", "properties": {"norad_id": 35616, "name": "IRIDIUM 33 DEB", "group": "iridium-33-debris", "lat": 50.61703724411947, "lon": -7.062761476366491, "alt_km": 624.2767017275319, "timestamp": "2025-12-06T18:50:10.554701+00:00", "meta": {"OBJECT_NAME": "IRIDIUM 33 DEB", "OBJECT_ID": "1997-051QN", "EPOCH": "2025-12-06T07:15:38.847744", "MEAN_MOTION": 14.81564916, "ECCENTRICITY": 0.00091957, "INCLINATION": 86.3542, "RA_OF_ASC_NODE": 348.7026, "ARG_OF_PERICENTER": 186.8662, "MEAN_ANOMALY": 173.2436, "EPHEMERIS_TYPE": 0, "CLASSIFICATION_TYPE": "U", "NORAD_CAT_ID": 35616, "ELEMENT_SET_NO": 999, "REV_AT_EPOCH": 87479, "BSTAR": 0.0030438731, "MEAN_MOTION_DOT": 0.00023991, "MEAN_MOTION_DDOT": 0}, "tle": {"line1": "1 35616U 97051QN  25340.30253296  .00023991  00000+0  30439-2 0  9991", "line2": "2 35616  86.3542 348.7026 0009195 186.8662 173.2436 14.81564916874798"}}, "geometry": {"type": "Point", "coordinates": [-7.062761476366491, 50.61703724411947]}}, {"type": "Feature", "properties": {"norad_id": 35618, "name": "IRIDIUM 33 DEB", "group": "iridium-33-debris", "lat": 84.96838034977604, "lon": 42.72856335344421, "alt_km": 695.6402060747641, "timestamp": "2025-12-06T18:50:10.554711+00:00", "meta": {"OBJECT_NAME": "IRIDIUM 33 DEB", "OBJECT_ID": "1997-051QQ", "EPOCH": "2025-12-05T07:42:53.148672", "MEAN_MOTION": 14.52258119, "ECCENTRICITY": 0.00302089, "INCLINATION": 86.3407, "RA_OF_ASC_NODE": 356.7447, "ARG_OF_PERICENTER": 46.3254, "MEAN_ANOMALY": 314.0448, "EPHEMERIS_TYPE": 0, "CLASSIFICATION_TYPE": "U", "NORAD_CAT_ID": 35618, "ELEMENT_SET_NO": 999, "REV_AT_EPOCH": 65286, "BSTAR": 0.00091388234, "MEAN_MOTION_DOT": 3.753e-05, "MEAN_MOTION_DDOT": 0}, "tle": {"line1": "1 35618U 97051QQ  25339.32144848  .00003753  00000+0  91388-3 0  9990", "line2": "2 35618  86.3407 356.7447 0030208  46.3254 314.0448 14.52258119652865"}}, "geometry": {"type": "Point", "coordinates": [42.72856335344421, 84.96838034977604]}}, {"type": "Feature", "properties": {"norad_id": 35620, "name": "IRIDIUM 33 DEB", "group": "iridium-33-debris", "lat": 18.384186785060884, "lon": -138.83213197221363, "alt_km": 782.7363786249725, "timestamp": "2025-12-06T18:50:10.554721+00:00", "meta": {"OBJECT_NAME": "IRIDIUM 33 DEB", "OBJECT_ID": "1997-051QS", "EPOCH": "2025-12-06T02:02:49.416288", "MEAN_MOTION": 14.3768993, "ECCENTRICITY": 0.01438549, "INCLINATION": 86.3906, "RA_OF_ASC_NODE": 220.2605, "ARG_OF_PERICENTER": 280.8706, "MEAN_ANOMALY": 77.6331, "EPHEMERIS_TYPE": 0, "CLASSIFICATION_TYPE": "U", "NORAD_CAT_ID": 35620, "ELEMENT_SET_NO": 999, "REV_AT_EPOCH": 59870, "BSTAR": 0.0080397283, "MEAN_MOTION_DOT": 0.00027327, "MEAN_MOTION_DDOT": 0}, "tle": {"line1": "1 35620U 97051QS  25340.08529417  .00027327  00000+0  80397-2 0  9997", "line2": "2 35620  86.3906 220.2605 0143854 280.8706  77.6331 14.37689930598709"}}, "geometry": {"type": "Point", "coordinates": [-138.83213197221363, 18.384186785060884]}}, {"type": "Feature", "properties": {"norad_id": 35622, "name": "IRIDIUM 33 DEB", "group": "iridium-33-debris", "lat": 54.82436946901925, "lon": 81.12824646038094, "alt_km": 554.4102008888103, "timestamp": "2025-12-06T18:50:10.554732+00:00", "meta": {"OBJECT_NAME": "IRIDIUM 33 DEB", "OBJECT_ID": "1997-051QU", "EPOCH": "2025-12-06T06:10:47.790912", "MEAN_MOTION": 15.03498314, "ECCENTRICITY": 0.00106929, "INCLINATION": 86.2036, "RA_OF_ASC_NODE": 266.7937, "ARG_OF_PERICENTER": 6.4287, "MEAN_ANOMALY": 145.8832, "EPHEMERIS_TYPE": 0, "CLASSIFICATION_TYPE": "U", "NORAD_CAT_ID": 35622, "ELEMENT_SET_NO": 999, "REV_AT_EPOCH": 87262, "BSTAR": 0.0085488468, "MEAN_MOTION_DOT": 0.00118453, "MEAN_MOTION_DDOT": 0}, "tle": {"line1": "1 35622U 97051QU  25340.25749758  .00118453  00000+0  85488-2 0  9997", "line2": "2 35622  86.2036 266.7937 0010692   6.4287 145.8832 15.03498314872624"}}, "geometry": {"type": "Point", "coordinates": [81.12824646038094, 54.82436946901925]}}, {"type": "Feature", "properties": {"norad_id": 35628, "name": "IRIDIUM 33 DEB", "group": "iridium-33-debris", "lat": 17.526659958726036, "lon": 12.884582625451268, "alt_km": 661.8496953513377, "timestamp": "2025-12-06T18:50:10.554742+00:00", "meta": {"OBJECT_NAME": "IRIDIUM 33 DEB", "OBJECT_ID": "1997-051RA", "EPOCH": "2025-12-04T09:28:36.488064", "MEAN_MOTION": 14.67394134, "ECCENTRICITY": 0.001144, "INCLINATION": 86.3576, "RA_OF_ASC_NODE": 12.797, "ARG_OF_PERICENTER": 12.0998, "MEAN_ANOMALY": 348.0488, "EPHEMERIS_TYPE": 0, "CLASSIFICATION_TYPE": "U", "NORAD_CAT_ID": 35628, "ELEMENT_SET_NO": 999, "REV_AT_EPOCH": 86324, "BSTAR": 0.0032445, "MEAN_MOTION_DOT": 0.00018408, "MEAN_MOTION_DDOT": 0}, "tle": {"line1": "1 35628U 97051RA  25338.39486676  .00018408  00000+0  32445-2 0  9996", "line2": "2 35628  86.3576  12.7970 0011440  12.0998 348.0488 14.67394134863246"}}, "geometry": {"type": "Point", "coordinates": [12.884582625451268, 17.526659958726036]}}, {"type": "Feature", "properties": {"norad_id": 35631, "name": "IRIDIUM 33 DEB", "group": "iridium-33-debris", "lat": -13.886315589677263, "lon": 22.639934676622207, "alt_km": 750.5096961319077, "timestamp": "2025-12-06T18:50:10.554752+00:00", "meta": {"OBJECT_NAME": "IRIDIUM 33 DEB", "OBJECT_ID": "1997-051RD", "EPOCH": "2025-12-06T02:27:05.085216", "MEAN_MOTION": 14.47282258, "ECCENTRICITY": 0.00184061, "INCLINATION": 86.3675, "RA_OF_ASC_NODE": 23.8336, "ARG_OF_PERICENTER": 138.1309, "MEAN_ANOMALY": 253.4255, "EPHEMERIS_TYPE": 0, "CLASSIFICATION_TYPE": "U", "NORAD_CAT_ID": 35631, "ELEMENT_SET_NO": 999, "REV_AT_EPOCH": 87101, "BSTAR": 0.00060554798, "MEAN_MOTION_DOT": 2.239e-05, "MEAN_MOTION_DDOT": 0}, "tle": {"line1": "1 35631U 97051RD  25340.10214219  .00002239  00000+0  60555-3 0  9993", "line2": "2 35631  86.3675  23.8336 0018406 138.1309 253.4255 14.47282258871010"}}, "geometry": {"type": "Point", "coordinates": [22.639934676622207, -13.886315589677263]}}, {"type": "Feature", "properties": {"norad_id": 35680, "name": "IRIDIUM 33 DEB", "group": "iridium-33-debris", "lat": 17.940459942607678, "lon": -157.1038714616795, "alt_km": 900.1833530187287, "timestamp": "2025-12-06T18:50:10.554762+00:00", "meta": {"OBJECT_NAME": "IRIDIUM 33 DEB", "OBJECT_ID": "1997-051RJ", "EPOCH": "2025-12-01T22:00:09.279648", "MEAN_MOTION": 14.20616647, "ECCENTRICITY": 0.01501261, "INCLINATION": 86.103, "RA_OF_ASC_NODE": 26.3138, "ARG_OF_PERICENTER": 313.2693, "MEAN_ANOMALY": 168.1986, "EPHEMERIS_TYPE": 0, "CLASSIFICATION_TYPE": "U", "NORAD_CAT_ID": 35680, "ELEMENT_SET_NO": 999, "REV_AT_EPOCH": 60547, "BSTAR": 0.0036692718, "MEAN_MOTION_DOT": 8.864e-05, "MEAN_MOTION_DDOT": 0}, "tle": {"line1": "1 35680U 97051RJ  25335.91677407  .00008864  00000+0  36693-2 0  9997", "line2": "2 35680  86.1030  26.3138 0150126 313.2693 168.1986 14.20616647605475"}}, "geometry": {"type": "Point", "coordinates": [-157.1038714616795, 17.940459942607678]}}]}